{"type": "FeatureCollection", "features": [ {"type": "Feature", "properties": {"norad_id": 32260, "name": "GPS BIIRM-4 (PRN 15)", "group": "gnss", "lat": -48.530845199085185, "lon": -36.64487159187785, "alt_km": 20603.041356925172, "timestamp": "2025-12-07T14:37:05.447013+00:00", "meta": {"OBJECT_NAME": "GPS BIIRM-4 (PRN 15)", "OBJECT_ID": "2007-047A", "EPOCH": "2025-12-06T06:31:43.189824", "MEAN_MOTION": 2.0056467, "ECCENTRICITY": 0.01643332, "INCLINATION": 53.9509, "RA_OF_ASC_NODE": 88.0257, "ARG_OF_PERICENTER": 85.1745, "MEAN_ANOMALY": 276.6803, "EPHEMERIS_TYPE": 0, "CLASSIFICATION_TYPE": "U", "NORAD_CAT_ID": 32260, "ELEMENT_SET_NO": 999, "REV_AT_EPOCH": 13294, "BSTAR": 0, "MEAN_MOTION_DOT": -2.3e-07, "MEAN_MOTION_DDOT": 0}, "tle": {"line1": "1 32260U 07047A   25340.27202766 -.00000023  00000+0  00000+0 0  9991", "line2": "2 32260  53.9509  88.0257 0164333  85.1745 276.6803  2.00564670132947"}}, "geometry": {"type": "Point", "coordinates": [-36.64487159187785, -48.530845199085185]}}, {"type": "Feature", "properties": {"norad_id": 32275, "name": "COSMOS 2433 (720)", "group": "gnss", "lat": 55.23620142359172, "lon": 101.72569726350709, "alt_km": 19133.92828549694, "timestamp": "2025-12-07T14:37:05.447025+00:00", "meta": {"OBJECT_NAME": "COSMOS 2433 (720)", "OBJECT_ID": "2007-052A", "EPOCH": "2025-12-05T02:41:16.127808", "MEAN_MOTION": 2.1310391, "ECCENTRICITY": 0.00054971, "INCLINATION": 65.6874, "RA_OF_ASC_NODE": 322.462, "ARG_OF_PERICENTER": 253.0747, "MEAN_ANOMALY": 106.8638, "EPHEMERIS_TYPE": 0, "CLASSIFICATION_TYPE": "U", "NORAD_CAT_ID": 32275, "ELEMENT_SET_NO": 999, "REV_AT_EPOCH": 14092, "BSTAR": 0, "MEAN_MOTION_DOT": -4.7e-07, "MEAN_MOTION_DDOT": 0}, "tle": {"line1": "1 32275U 07052A   25339.11199222 -.00000047  00000+0  00000+0 0  9992", "line2": "2 32275  65.6874 322.4620 0005497 253.0747 106.8638  2.13103910140927"}}, "geometry": {"type": "Point", "coordinates": [101.72569726350709, 55.23620142359172]}}, {"type": "Feature", "properties": {"norad_id": 32276, "name": "COSMOS 2432 (719)", "group": "gnss", "lat": 52.3028907257344, "lon": -1.7394266012885515, "alt_km": 19133.104671018296, "timestamp": "2025-12-07T14:37:05.447037+00:00", "meta": {"OBJECT_NAME": "COSMOS 2432 (719)", "OBJECT_ID": "2007-052B", "EPOCH": "2025-12-04T17:08:15.006912", "MEAN_MOTION": 2.13103047, "ECCENTRICITY": 0.00112577, "INCLINATION": 65.7035, "RA_OF_ASC_NODE": 322.5994, "ARG_OF_PERICENTER": 311.684, "MEAN_ANOMALY": 47.4656, "EPHEMERIS_TYPE": 0, "CLASSIFICATION_TYPE": "U", "NORAD_CAT_ID": 32276, "ELEMENT_SET_NO": 999, "REV_AT_EPOCH": 14093, "BSTAR": 0, "MEAN_MOTION_DOT": -4.6e-07, "MEAN_MOTION_DDOT": 0}, "tle": {"line1": "1 32276U 07052B   25338.71406258 -.00000046  00000+0  00000+0 0  9997", "line2": "2 32276  65.7035 322.5994 0011257 311.6840  47.4656  2.13103047140931"}}, "geometry": {"type": "Point", "coordinates": [-1.7394266012885515, 52.3028907257344]}}, {"type": "Feature", "properties": {"norad_id": 32384, "name": "GPS BIIRM-5 (PRN 29)", "group": "gnss", "lat": 13.155355088631804, "lon": -68.81918343383602, "alt_km": 20250.98653172841, "timestamp": "2025-12-07T14:37:05.447049+00:00", "meta": {"OBJECT_NAME": "GPS BIIRM-5 (PRN 29)", "OBJECT_ID": "2007-062A", "EPOCH": "2025-12-06T07:55:36.402816", "MEAN_MOTION": 2.00576852, "ECCENTRICITY": 0.00322142, "INCLINATION": 55.1879, "RA_OF_ASC_NODE": 281.903, "ARG_OF_PERICENTER": 162.6829, "MEAN_ANOMALY": 10.1914, "EPHEMERIS_TYPE": 0, "CLASSIFICATION_TYPE": "U", "NORAD_CAT_ID": 32384, "ELEMENT_SET_NO": 999, "REV_AT_EPOCH": 13164, "BSTAR": 0, "MEAN_MOTION_DOT": -3.7e-07, "MEAN_MOTION_DDOT": 0}, "tle": {"line1": "1 32384U 07062A   25340.33028244 -.00000037  00000+0  00000+0 0  9994", "line2": "2 32384  55.1879 281.9030 0032214 162.6829  10.1914  2.00576852131642"}}, "geometry": {"type": "Point", "coordinates": [-68.81918343383602, 13.155355088631804]}}, {"type": "Feature", "properties": {"norad_id": 32393, "name": "COSMOS 2434 (721)", "group": "gnss", "lat": 5.545358850782491, "lon": -158.9411004701102, "alt_km": 19124.916789534225, "timestamp": "2025-12-07T14:37:05.447061+00:00", "meta": {"OBJECT_NAME": "COSMOS 2434 (721)", "OBJECT_ID": "2007-065A", "EPOCH": "2025-12-05T10:54:52.087392", "MEAN_MOTION": 2.1310119, "ECCENTRICITY": 0.00044378, "INCLINATION": 64.3147, "RA_OF_ASC_NODE": 198.4493, "ARG_OF_PERICENTER": 70.9033, "MEAN_ANOMALY": 82.6626, "EPHEMERIS_TYPE": 0, "CLASSIFICATION_TYPE": "U", "NORAD_CAT_ID": 32393, "ELEMENT_SET_NO": 999, "REV_AT_EPOCH": 13964, "BSTAR": 0, "MEAN_MOTION_DOT": 8.7e-07, "MEAN_MOTION_DDOT": 0}, "tle": {"line1": "1 32393U 07065A   25339.45476953  .00000087  00000+0  00000+0 0  9996", "line2": "2 32393  64.3147 198.4493 0004437  70.9033  82.6626  2.13101190139646"}}, "geometry": {"type": "Point", "coordinates": [-158.9411004701102, 5.545358850782491]}}, {"type": "Feature", "properties": {"norad_id": 32395, "name": "COSMOS 2436 (723)", "group": "gnss", "lat": 35.811613768652634, "lon": -1.8615553050377744, "alt_km": 19155.15638700693, "timestamp": "2025-12-07T14:37:05.447074+00:00", "meta": {"OBJECT_NAME": "COSMOS 2436 (723)", "OBJECT_ID": "2007-065C", "EPOCH": "2025-12-06T17:19:11.728128", "MEAN_MOTION": 2.131, "ECCENTRICITY": 0.00177361, "INCLINATION": 64.3235, "RA_OF_ASC_NODE": 198.4768, "ARG_OF_PERICENTER": 9.0912, "MEAN_ANOMALY": 169.4932, "EPHEMERIS_TYPE": 0, "CLASSIFICATION_TYPE": "U", "NORAD_CAT_ID": 32395, "ELEMENT_SET_NO": 999, "REV_AT_EPOCH": 13962, "BSTAR": 0, "MEAN_MOTION_DOT": 6.8e-07, "MEAN_MOTION_DDOT": 0}, "tle": {"line1": "1 32395U 07065C   25340.72166352  .00000068  00000+0  00000+0 0  9998", "line2": "2 32395  64.3235 198.4768 0017736   9.0912 169.4932  2.13100000139627"}}, "geometry": {"type": "Point", "coordinates": [-1.8615553050377744, 35.811613768652634]}}, {"type": "Feature", "properties": {"norad_id": 32711, "name": "GPS BIIRM-6 (PRN 07)", "group": "gnss", "lat": -43.13926221082525, "lon": 115.52419792569273, "alt_km": 19893.898986487606, "timestamp": "2025-12-07T14:37:05.447086+00:00", "meta": {"OBJECT_NAME": "GPS BIIRM-6 (PRN 07)", "OBJECT_ID": "2008-012A", "EPOCH": "2025-12-06T16:34:57.264384", "MEAN_MOTION": 2.00565269, "ECCENTRICITY": 0.02022029, "INCLINATION": 54.4762, "RA_OF_ASC_NODE": 157.6144, "ARG_OF_PERICENTER": 244.8815, "MEAN_ANOMALY": 113.0202, "EPHEMERIS_TYPE": 0, "CLASSIFICATION_TYPE": "U", "NORAD_CAT_ID": 32711, "ELEMENT_SET_NO": 999, "REV_AT_EPOCH": 12989, "BSTAR": 0, "MEAN_MOTION_DOT": 6.1e-07, "MEAN_MOTION_DDOT": 0}, "tle": {"line1": "1 32711U 08012A   25340.69094056  .00000061  00000+0  00000+0 0  9993", "line2": "2 32711  54.4762 157.6144 0202202 244.8815 113.0202  2.00565269129895"}}, "geometry": {"type": "Point", "coordinates": [115.52419792569273, -43.13926221082525]}}, {"type": "Feature", "properties": {"norad_id": 35752, "name": "GPS BIIRM-8 (PRN 05)", "group": "gnss", "lat": -31.996775212941007, "lon": 10.171949433658872, "alt_km": 20257.9501234671, "timestamp": "2025-12-07T14:37:05.447098+00:00", "meta": {"OBJECT_NAME": "GPS BIIRM-8 (PRN 05)", "OBJECT_ID": "2009-043A", "EPOCH": "2025-12-06T04:15:17.726400", "MEAN_MOTION": 2.00565936, "ECCENTRICITY": 0.00519837, "INCLINATION": 56.0865, "RA_OF_ASC_NODE": 35.042, "ARG_OF_PERICENTER": 82.0207, "MEAN_ANOMALY": 285.0233, "EPHEMERIS_TYPE": 0, "CLASSIFICATION_TYPE": "U", "NORAD_CAT_ID": 35752, "ELEMENT_SET_NO": 999, "REV_AT_EPOCH": 11949, "BSTAR": 0, "MEAN_MOTION_DOT": -7.1e-07, "MEAN_MOTION_DDOT": 0}, "tle": {"line1": "1 35752U 09043A   25340.17728850 -.00000071  00000+0  00000+0 0  9997", "line2": "2 35752  56.0865  35.0420 0051983  82.0207 285.0233  2.00565936119496"}}, "geometry": {"type": "Point", "coordinates": [10.171949433658872, -31.996775212941007]}}, {"type": "Feature", "properties": {"norad_id": 36111, "name": "COSMOS 2456 (730)", "group": "gnss", "lat": 15.039329906375226, "lon": -109.70361658840687, "alt_km": 19133.704474117254, "timestamp": "2025-12-07T14:37:05.447110+00:00", "meta": {"OBJECT_NAME": "COSMOS 2456 (730)", "OBJECT_ID": "2009-070A", "EPOCH": "2025-12-06T21:12:24.583968", "MEAN_MOTION": 2.13103425, "ECCENTRICITY": 0.00030121, "INCLINATION": 64.8968, "RA_OF_ASC_NODE": 77.5382, "ARG_OF_PERICENTER": 297.7159, "MEAN_ANOMALY": 29.056, "EPHEMERIS_TYPE": 0, "CLASSIFICATION_TYPE": "U", "NORAD_CAT_ID": 36111, "ELEMENT_SET_NO": 999, "REV_AT_EPOCH": 12432, "BSTAR": 0, "MEAN_MOTION_DOT": -1.7e-07, "MEAN_MOTION_DDOT": 0}, "tle": {"line1": "1 36111U 09070A   25340.88361787 -.00000017  00000+0  00000+0 0  9997", "line2": "2 36111  64.8968  77.5382 0003012 297.7159  29.0560  2.13103425124328"}}, "geometry": {"type": "Point", "coordinates": [-109.70361658840687, 15.039329906375226]}}, {"type": "Feature", "properties": {"norad_id": 36112, "name": "COSMOS 2457 (733)", "group": "gnss", "lat": -56.74856725959042, "lon": 31.783985655672858, "alt_km": 19144.84565570419, "timestamp": "2025-12-07T14:37:05.447128+00:00", "meta": {"OBJECT_NAME": "COSMOS 2457 (733)", "OBJECT_ID": "2009-070B", "EPOCH": "2025-12-06T07:10:29.262720", "MEAN_MOTION": 2.13100792, "ECCENTRICITY": 0.00047992, "INCLINATION": 64.8819, "RA_OF_ASC_NODE": 77.406, "ARG_OF_PERICENTER": 157.5732, "MEAN_ANOMALY": 209.8629, "EPHEMERIS_TYPE": 0, "CLASSIFICATION_TYPE": "U", "NORAD_CAT_ID": 36112, "ELEMENT_SET_NO": 999, "REV_AT_EPOCH": 12432, "BSTAR": 0, "MEAN_MOTION_DOT": -1.9e-07, "MEAN_MOTION_DDOT": 0}, "tle": {"line1": "1 36112U 09070B   25340.29894980 -.00000019  00000+0  00000+0 0  9991", "line2": "2 36112  64.8819  77.4060 0004799 157.5732 209.8629  2.13100792124327"}}, "geometry": {"type": "Point", "coordinates": [31.783985655672858, -56.74856725959042]}}]}